[{"OBJECT_NAME":"STARLINK-1222","OBJECT_ID":"2020-012BC","EPOCH":"2026-03-09T22:38:25.073664","MEAN_MOTION":15.49506736,"ECCENTRICITY":0.00039794,"INCLINATION":53.0573,"RA_OF_ASC_NODE":341.5954,"ARG_OF_PERICENTER":86.864,"MEAN_ANOMALY":273.2823,"EPHEMERIS_TYPE":0,"CLASSIFICATION_TYPE":"U","NORAD_CAT_ID":45228,"ELEMENT_SET_NO":999,"REV_AT_EPOCH":33566,"BSTAR":0.00049812662,"MEAN_MOTION_DOT":0.00027553,"MEAN_MOTION_DDOT":0},{"OBJECT_NAME":"ELECTRON KICK STAGE R\/B","OBJECT_ID":"2024-022C","EPOCH":"2026-03-09T13:05:49.259328","MEAN_MOTION":15.49181976,"ECCENTRICITY":0.00079262,"INCLINATION":97.4177,"RA_OF_ASC_NODE":282.5126,"ARG_OF_PERICENTER":91.5934,"MEAN_ANOMALY":268.6225,"EPHEMERIS_TYPE":0,"CLASSIFICATION_TYPE":"U","NORAD_CAT_ID":58901,"ELEMENT_SET_NO":999,"REV_AT_EPOCH":11729,"BSTAR":0.0006925927,"MEAN_MOTION_DOT":0.00037792,"MEAN_MOTION_DDOT":0}]
